[{"OBJECT_NAME":"NAPA-2","OBJECT_ID":"2021-059CN","EPOCH":"2026-03-09T23:29:49.102656","MEAN_MOTION":15.70952391,"ECCENTRICITY":0.00036606,"INCLINATION":97.6849,"RA_OF_ASC_NODE":256.4978,"ARG_OF_PERICENTER":316.466,"MEAN_ANOMALY":43.6312,"EPHEMERIS_TYPE":0,"CLASSIFICATION_TYPE":"U","NORAD_CAT_ID":48963,"ELEMENT_SET_NO":999,"REV_AT_EPOCH":26212,"BSTAR":0.00074486022,"MEAN_MOTION_DOT":0.00093758,"MEAN_MOTION_DDOT":0},{"OBJECT_NAME":"STARLINK-11183 [DTC]","OBJECT_ID":"2024-124G","EPOCH":"2026-03-09T12:33:21.363552","MEAN_MOTION":15.69697228,"ECCENTRICITY":0.0001227,"INCLINATION":53.16,"RA_OF_ASC_NODE":162.3901,"ARG_OF_PERICENTER":90.3593,"MEAN_ANOMALY":269.7566,"EPHEMERIS_TYPE":0,"CLASSIFICATION_TYPE":"U","NORAD_CAT_ID":60189,"ELEMENT_SET_NO":999,"REV_AT_EPOCH":9650,"BSTAR":-1.4709802e-5,"MEAN_MOTION_DOT":-2.369e-5,"MEAN_MOTION_DDOT":0}]
